<?xml version="1.0" encoding="UTF-8"?>
<ndm xmlns:xsi="http://www.w3.org/2001/XMLSchema-instance" xsi:noNamespaceSchemaLocation="https://sanaregistry.org/r/ndmxml_unqualified/ndmxml-2.0.0-master-2.0.xsd">
<omm id="CCSDS_OMM_VERS" version="2.0">
<header><CREATION_DATE/><ORIGINATOR/></header><body><segment><metadata><OBJECT_NAME>ONEWEB-0533</OBJECT_NAME><OBJECT_ID>2023-004B</OBJECT_ID><CENTER_NAME>EARTH</CENTER_NAME><REF_FRAME>TEME</REF_FRAME><TIME_SYSTEM>UTC</TIME_SYSTEM><MEAN_ELEMENT_THEORY>SGP4</MEAN_ELEMENT_THEORY></metadata><data><meanElements><EPOCH>2023-10-29T22:57:08.357472</EPOCH><MEAN_MOTION>13.12444247</MEAN_MOTION><ECCENTRICITY>.0001891</ECCENTRICITY><INCLINATION>87.9123</INCLINATION><RA_OF_ASC_NODE>181.7329</RA_OF_ASC_NODE><ARG_OF_PERICENTER>74.8496</ARG_OF_PERICENTER><MEAN_ANOMALY>285.2841</MEAN_ANOMALY></meanElements><tleParameters><EPHEMERIS_TYPE>0</EPHEMERIS_TYPE><CLASSIFICATION_TYPE>U</CLASSIFICATION_TYPE><NORAD_CAT_ID>55141</NORAD_CAT_ID><ELEMENT_SET_NO>999</ELEMENT_SET_NO><REV_AT_EPOCH>4197</REV_AT_EPOCH><BSTAR>.96862E-3</BSTAR><MEAN_MOTION_DOT>.361E-5</MEAN_MOTION_DOT><MEAN_MOTION_DDOT>0</MEAN_MOTION_DDOT></tleParameters></data></segment></body></omm>
<omm id="CCSDS_OMM_VERS" version="2.0">
<header><CREATION_DATE/><ORIGINATOR/></header><body><segment><metadata><OBJECT_NAME>ONEWEB-0541</OBJECT_NAME><OBJECT_ID>2023-004C</OBJECT_ID><CENTER_NAME>EARTH</CENTER_NAME><REF_FRAME>TEME</REF_FRAME><TIME_SYSTEM>UTC</TIME_SYSTEM><MEAN_ELEMENT_THEORY>SGP4</MEAN_ELEMENT_THEORY></metadata><data><meanElements><EPOCH>2023-10-29T18:25:57.912096</EPOCH><MEAN_MOTION>13.11413453</MEAN_MOTION><ECCENTRICITY>.0001805</ECCENTRICITY><INCLINATION>87.8997</INCLINATION><RA_OF_ASC_NODE>212.0656</RA_OF_ASC_NODE><ARG_OF_PERICENTER>78.7955</ARG_OF_PERICENTER><MEAN_ANOMALY>281.3375</MEAN_ANOMALY></meanElements><tleParameters><EPHEMERIS_TYPE>0</EPHEMERIS_TYPE><CLASSIFICATION_TYPE>U</CLASSIFICATION_TYPE><NORAD_CAT_ID>55142</NORAD_CAT_ID><ELEMENT_SET_NO>999</ELEMENT_SET_NO><REV_AT_EPOCH>3993</REV_AT_EPOCH><BSTAR>-.22275E-3</BSTAR><MEAN_MOTION_DOT>-.66E-6</MEAN_MOTION_DOT><MEAN_MOTION_DDOT>0</MEAN_MOTION_DDOT></tleParameters></data></segment></body></omm>
<omm id="CCSDS_OMM_VERS" version="2.0">
<header><CREATION_DATE/><ORIGINATOR/></header><body><segment><metadata><OBJECT_NAME>ONEWEB-0543</OBJECT_NAME><OBJECT_ID>2023-004D</OBJECT_ID><CENTER_NAME>EARTH</CENTER_NAME><REF_FRAME>TEME</REF_FRAME><TIME_SYSTEM>UTC</TIME_SYSTEM><MEAN_ELEMENT_THEORY>SGP4</MEAN_ELEMENT_THEORY></metadata><data><meanElements><EPOCH>2023-10-26T16:00:00.999936</EPOCH><MEAN_MOTION>13.85522031</MEAN_MOTION><ECCENTRICITY>.000249</ECCENTRICITY><INCLINATION>87.3670</INCLINATION><RA_OF_ASC_NODE>168.4349</RA_OF_ASC_NODE><ARG_OF_PERICENTER>327.0214</ARG_OF_PERICENTER><MEAN_ANOMALY>98.7386</MEAN_ANOMALY></meanElements><tleParameters><EPHEMERIS_TYPE>0</EPHEMERIS_TYPE><CLASSIFICATION_TYPE>U</CLASSIFICATION_TYPE><NORAD_CAT_ID>55143</NORAD_CAT_ID><ELEMENT_SET_NO>999</ELEMENT_SET_NO><REV_AT_EPOCH>4246</REV_AT_EPOCH><BSTAR>-.97434E+0</BSTAR><MEAN_MOTION_DOT>-.1046859E-1</MEAN_MOTION_DOT><MEAN_MOTION_DDOT>0</MEAN_MOTION_DDOT></tleParameters></data></segment></body></omm>
<omm id="CCSDS_OMM_VERS" version="2.0">
<header><CREATION_DATE/><ORIGINATOR/></header><body><segment><metadata><OBJECT_NAME>ONEWEB-0544</OBJECT_NAME><OBJECT_ID>2023-004E</OBJECT_ID><CENTER_NAME>EARTH</CENTER_NAME><REF_FRAME>TEME</REF_FRAME><TIME_SYSTEM>UTC</TIME_SYSTEM><MEAN_ELEMENT_THEORY>SGP4</MEAN_ELEMENT_THEORY></metadata><data><meanElements><EPOCH>2023-10-26T16:00:00.999936</EPOCH><MEAN_MOTION>13.84398014</MEAN_MOTION><ECCENTRICITY>.0001397</ECCENTRICITY><INCLINATION>87.3705</INCLINATION><RA_OF_ASC_NODE>168.3983</RA_OF_ASC_NODE><ARG_OF_PERICENTER>15.6348</ARG_OF_PERICENTER><MEAN_ANOMALY>316.8167</MEAN_ANOMALY></meanElements><tleParameters><EPHEMERIS_TYPE>0</EPHEMERIS_TYPE><CLASSIFICATION_TYPE>U</CLASSIFICATION_TYPE><NORAD_CAT_ID>55144</NORAD_CAT_ID><ELEMENT_SET_NO>999</ELEMENT_SET_NO><REV_AT_EPOCH>4247</REV_AT_EPOCH><BSTAR>-.97421E+0</BSTAR><MEAN_MOTION_DOT>-.1027964E-1</MEAN_MOTION_DOT><MEAN_MOTION_DDOT>0</MEAN_MOTION_DDOT></tleParameters></data></segment></body></omm>
<omm id="CCSDS_OMM_VERS" version="2.0">
<header><CREATION_DATE/><ORIGINATOR/></header><body><segment><metadata><OBJECT_NAME>ONEWEB-0560</OBJECT_NAME><OBJECT_ID>2023-004F</OBJECT_ID><CENTER_NAME>EARTH</CENTER_NAME><REF_FRAME>TEME</REF_FRAME><TIME_SYSTEM>UTC</TIME_SYSTEM><MEAN_ELEMENT_THEORY>SGP4</MEAN_ELEMENT_THEORY></metadata><data><meanElements><EPOCH>2023-10-26T16:00:00.999936</EPOCH><MEAN_MOTION>13.85941701</MEAN_MOTION><ECCENTRICITY>.0001982</ECCENTRICITY><INCLINATION>87.3602</INCLINATION><RA_OF_ASC_NODE>168.3484</RA_OF_ASC_NODE><ARG_OF_PERICENTER>38.9280</ARG_OF_PERICENTER><MEAN_ANOMALY>198.8370</MEAN_ANOMALY></meanElements><tleParameters><EPHEMERIS_TYPE>0</EPHEMERIS_TYPE><CLASSIFICATION_TYPE>U</CLASSIFICATION_TYPE><NORAD_CAT_ID>55145</NORAD_CAT_ID><ELEMENT_SET_NO>999</ELEMENT_SET_NO><REV_AT_EPOCH>4248</REV_AT_EPOCH><BSTAR>-.95301E+0</BSTAR><MEAN_MOTION_DOT>-.103214E-1</MEAN_MOTION_DOT><MEAN_MOTION_DDOT>0</MEAN_MOTION_DDOT></tleParameters></data></segment></body></omm>
<omm id="CCSDS_OMM_VERS" version="2.0">
<header><CREATION_DATE/><ORIGINATOR/></header><body><segment><metadata><OBJECT_NAME>ONEWEB-0565</OBJECT_NAME><OBJECT_ID>2023-004G</OBJECT_ID><CENTER_NAME>EARTH</CENTER_NAME><REF_FRAME>TEME</REF_FRAME><TIME_SYSTEM>UTC</TIME_SYSTEM><MEAN_ELEMENT_THEORY>SGP4</MEAN_ELEMENT_THEORY></metadata><data><meanElements><EPOCH>2023-10-26T16:00:00.999936</EPOCH><MEAN_MOTION>13.84651382</MEAN_MOTION><ECCENTRICITY>.0000995</ECCENTRICITY><INCLINATION>87.3805</INCLINATION><RA_OF_ASC_NODE>168.4076</RA_OF_ASC_NODE><ARG_OF_PERICENTER>15.7941</ARG_OF_PERICENTER><MEAN_ANOMALY>79.4576</MEAN_ANOMALY></meanElements><tleParameters><EPHEMERIS_TYPE>0</EPHEMERIS_TYPE><CLASSIFICATION_TYPE>U</CLASSIFICATION_TYPE><NORAD_CAT_ID>55146</NORAD_CAT_ID><ELEMENT_SET_NO>999</ELEMENT_SET_NO><REV_AT_EPOCH>4247</REV_AT_EPOCH><BSTAR>-.96345E+0</BSTAR><MEAN_MOTION_DOT>-.1021372E-1</MEAN_MOTION_DOT><MEAN_MOTION_DDOT>0</MEAN_MOTION_DDOT></tleParameters></data></segment></body></omm>
<omm id="CCSDS_OMM_VERS" version="2.0">
<header><CREATION_DATE/><ORIGINATOR/></header><body><segment><metadata><OBJECT_NAME>ONEWEB-0567</OBJECT_NAME><OBJECT_ID>2023-004H</OBJECT_ID><CENTER_NAME>EARTH</CENTER_NAME><REF_FRAME>TEME</REF_FRAME><TIME_SYSTEM>UTC</TIME_SYSTEM><MEAN_ELEMENT_THEORY>SGP4</MEAN_ELEMENT_THEORY></metadata><data><meanElements><EPOCH>2023-10-26T16:00:00.999936</EPOCH><MEAN_MOTION>13.83835010</MEAN_MOTION><ECCENTRICITY>.0003051</ECCENTRICITY><INCLINATION>87.3722</INCLINATION><RA_OF_ASC_NODE>168.3649</RA_OF_ASC_NODE><ARG_OF_PERICENTER>351.5071</ARG_OF_PERICENTER><MEAN_ANOMALY>312.9907</MEAN_ANOMALY></meanElements><tleParameters><EPHEMERIS_TYPE>0</EPHEMERIS_TYPE><CLASSIFICATION_TYPE>U</CLASSIFICATION_TYPE><NORAD_CAT_ID>55147</NORAD_CAT_ID><ELEMENT_SET_NO>999</ELEMENT_SET_NO><REV_AT_EPOCH>4247</REV_AT_EPOCH><BSTAR>-.97201E+0</BSTAR><MEAN_MOTION_DOT>-.1016562E-1</MEAN_MOTION_DOT><MEAN_MOTION_DDOT>0</MEAN_MOTION_DDOT></tleParameters></data></segment></body></omm>
<omm id="CCSDS_OMM_VERS" version="2.0">
<header><CREATION_DATE/><ORIGINATOR/></header><body><segment><metadata><OBJECT_NAME>ONEWEB-0569</OBJECT_NAME><OBJECT_ID>2023-004J</OBJECT_ID><CENTER_NAME>EARTH</CENTER_NAME><REF_FRAME>TEME</REF_FRAME><TIME_SYSTEM>UTC</TIME_SYSTEM><MEAN_ELEMENT_THEORY>SGP4</MEAN_ELEMENT_THEORY></metadata><data><meanElements><EPOCH>2023-10-29T21:35:19.140576</EPOCH><MEAN_MOTION>14.66393092</MEAN_MOTION><ECCENTRICITY>.0002752</ECCENTRICITY><INCLINATION>86.5331</INCLINATION><RA_OF_ASC_NODE>162.3184</RA_OF_ASC_NODE><ARG_OF_PERICENTER>33.0483</ARG_OF_PERICENTER><MEAN_ANOMALY>327.0902</MEAN_ANOMALY></meanElements><tleParameters><EPHEMERIS_TYPE>0</EPHEMERIS_TYPE><CLASSIFICATION_TYPE>U</CLASSIFICATION_TYPE><NORAD_CAT_ID>55148</NORAD_CAT_ID><ELEMENT_SET_NO>999</ELEMENT_SET_NO><REV_AT_EPOCH>4313</REV_AT_EPOCH><BSTAR>.98361E-3</BSTAR><MEAN_MOTION_DOT>.5457E-4</MEAN_MOTION_DOT><MEAN_MOTION_DDOT>0</MEAN_MOTION_DDOT></tleParameters></data></segment></body></omm>

</ndm>
