ONEWEB-0533             
1 55141U 23004B   23302.95634673  .00000361  00000+0  96862-3 0  9991
2 55141  87.9123 181.7329 0001891  74.8496 285.2841 13.12444247 41979
ONEWEB-0541             
1 55142U 23004C   23302.76803139 -.00000066  00000+0 -22275-3 0  9997
2 55142  87.8997 212.0656 0001805  78.7955 281.3375 13.11413453 39933
ONEWEB-0543             
1 55143U 23004D   23299.66667824 -.01046859  00000+0 -97434+0 0  9997
2 55143  87.3670 168.4349 0002490 327.0214  98.7386 13.85522031 42467
ONEWEB-0544             
1 55144U 23004E   23299.66667824 -.01027964  00000+0 -97421+0 0  9990
2 55144  87.3705 168.3983 0001397  15.6348 316.8167 13.84398014 42476
ONEWEB-0560             
1 55145U 23004F   23299.66667824 -.01032140  00000+0 -95301+0 0  9998
2 55145  87.3602 168.3484 0001982  38.9280 198.8370 13.85941701 42485
ONEWEB-0565             
1 55146U 23004G   23299.66667824 -.01021372  00000+0 -96345+0 0  9993
2 55146  87.3805 168.4076 0000995  15.7941  79.4576 13.84651382 42472
ONEWEB-0567             
1 55147U 23004H   23299.66667824 -.01016562  00000+0 -97201+0 0  9991
2 55147  87.3722 168.3649 0003051 351.5071 312.9907 13.83835010 42471
ONEWEB-0569             
1 55148U 23004J   23302.89952709  .00005457  00000+0  98361-3 0  9991
2 55148  86.5331 162.3184 0002752  33.0483 327.0902 14.66393092 43130
